[{"OBJECT_NAME":"ONEWEB-0500","OBJECT_ID":"2022-138F","EPOCH":"2025-12-15T08:33:01.113696","MEAN_MOTION":13.19724526,"ECCENTRICITY":0.00017278,"INCLINATION":87.9203,"RA_OF_ASC_NODE":341.5397,"ARG_OF_PERICENTER":86.9687,"MEAN_ANOMALY":273.1643,"EPHEMERIS_TYPE":0,"CLASSIFICATION_TYPE":"U","NORAD_CAT_ID":54118,"ELEMENT_SET_NO":999,"REV_AT_EPOCH":15258,"BSTAR":0.00011353823,"MEAN_MOTION_DOT":5.8e-7,"MEAN_MOTION_DDOT":0},{"OBJECT_NAME":"ONEWEB-0501","OBJECT_ID":"2022-138G","EPOCH":"2025-12-15T00:10:21.750816","MEAN_MOTION":13.19724566,"ECCENTRICITY":0.00021269,"INCLINATION":87.921,"RA_OF_ASC_NODE":341.608,"ARG_OF_PERICENTER":81.4542,"MEAN_ANOMALY":278.6832,"EPHEMERIS_TYPE":0,"CLASSIFICATION_TYPE":"U","NORAD_CAT_ID":54119,"ELEMENT_SET_NO":999,"REV_AT_EPOCH":15251,"BSTAR":-1.3372858e-5,"MEAN_MOTION_DOT":8.0e-8,"MEAN_MOTION_DDOT":0},{"OBJECT_NAME":"ONEWEB-0502","OBJECT_ID":"2022-138H","EPOCH":"2025-12-15T05:17:24.589536","MEAN_MOTION":13.19725807,"ECCENTRICITY":0.00020914,"INCLINATION":87.9209,"RA_OF_ASC_NODE":341.547,"ARG_OF_PERICENTER":85.8912,"MEAN_ANOMALY":274.246,"EPHEMERIS_TYPE":0,"CLASSIFICATION_TYPE":"U","NORAD_CAT_ID":54120,"ELEMENT_SET_NO":999,"REV_AT_EPOCH":15256,"BSTAR":9.7410716e-5,"MEAN_MOTION_DOT":5.2e-7,"MEAN_MOTION_DDOT":0},{"OBJECT_NAME":"ONEWEB-0503","OBJECT_ID":"2022-138J","EPOCH":"2025-12-15T06:50:39.559776","MEAN_MOTION":13.19725482,"ECCENTRICITY":0.00019538,"INCLINATION":87.921,"RA_OF_ASC_NODE":341.5381,"ARG_OF_PERICENTER":95.0881,"MEAN_ANOMALY":265.0475,"EPHEMERIS_TYPE":0,"CLASSIFICATION_TYPE":"U","NORAD_CAT_ID":54121,"ELEMENT_SET_NO":999,"REV_AT_EPOCH":15256,"BSTAR":0.00023513118,"MEAN_MOTION_DOT":1.07e-6,"MEAN_MOTION_DDOT":0},{"OBJECT_NAME":"ONEWEB-0504","OBJECT_ID":"2022-138K","EPOCH":"2025-12-15T08:21:38.208960","MEAN_MOTION":13.19724329,"ECCENTRICITY":0.00020792,"INCLINATION":87.9204,"RA_OF_ASC_NODE":341.5415,"ARG_OF_PERICENTER":87.0151,"MEAN_ANOMALY":273.1219,"EPHEMERIS_TYPE":0,"CLASSIFICATION_TYPE":"U","NORAD_CAT_ID":54122,"ELEMENT_SET_NO":999,"REV_AT_EPOCH":15258,"BSTAR":1.1381327e-5,"MEAN_MOTION_DOT":1.8e-7,"MEAN_MOTION_DDOT":0},{"OBJECT_NAME":"ONEWEB-0505","OBJECT_ID":"2022-138L","EPOCH":"2025-12-15T08:17:05.519328","MEAN_MOTION":13.19724987,"ECCENTRICITY":0.00022846,"INCLINATION":87.921,"RA_OF_ASC_NODE":341.5322,"ARG_OF_PERICENTER":81.6398,"MEAN_ANOMALY":278.4994,"EPHEMERIS_TYPE":0,"CLASSIFICATION_TYPE":"U","NORAD_CAT_ID":54123,"ELEMENT_SET_NO":999,"REV_AT_EPOCH":15256,"BSTAR":4.7460071e-5,"MEAN_MOTION_DOT":3.2e-7,"MEAN_MOTION_DDOT":0},{"OBJECT_NAME":"ONEWEB-0506","OBJECT_ID":"2022-138M","EPOCH":"2025-12-15T00:24:00.139392","MEAN_MOTION":13.19724626,"ECCENTRICITY":0.00019942,"INCLINATION":87.9211,"RA_OF_ASC_NODE":341.5948,"ARG_OF_PERICENTER":85.5402,"MEAN_ANOMALY":274.5959,"EPHEMERIS_TYPE":0,"CLASSIFICATION_TYPE":"U","NORAD_CAT_ID":54124,"ELEMENT_SET_NO":999,"REV_AT_EPOCH":15251,"BSTAR":0.00012025637,"MEAN_MOTION_DOT":6.1e-7,"MEAN_MOTION_DDOT":0},{"OBJECT_NAME":"ONEWEB-0507","OBJECT_ID":"2022-138N","EPOCH":"2025-12-15T00:53:34.182816","MEAN_MOTION":13.1972442,"ECCENTRICITY":0.00019621,"INCLINATION":87.9192,"RA_OF_ASC_NODE":341.6254,"ARG_OF_PERICENTER":82.1694,"MEAN_ANOMALY":277.9661,"EPHEMERIS_TYPE":0,"CLASSIFICATION_TYPE":"U","NORAD_CAT_ID":54125,"ELEMENT_SET_NO":999,"REV_AT_EPOCH":15256,"BSTAR":-9.1712065e-5,"MEAN_MOTION_DOT":-2.4e-7,"MEAN_MOTION_DDOT":0},{"OBJECT_NAME":"ONEWEB-0508","OBJECT_ID":"2022-138P","EPOCH":"2025-12-15T06:16:32.863872","MEAN_MOTION":13.19725511,"ECCENTRICITY":0.00020304,"INCLINATION":87.9201,"RA_OF_ASC_NODE":341.5746,"ARG_OF_PERICENTER":78.5682,"MEAN_ANOMALY":281.5679,"EPHEMERIS_TYPE":0,"CLASSIFICATION_TYPE":"U","NORAD_CAT_ID":54126,"ELEMENT_SET_NO":999,"REV_AT_EPOCH":15257,"BSTAR":0.00020844348,"MEAN_MOTION_DOT":9.6e-7,"MEAN_MOTION_DDOT":0},{"OBJECT_NAME":"ONEWEB-0509","OBJECT_ID":"2022-138Q","EPOCH":"2025-12-15T00:12:37.498176","MEAN_MOTION":13.19724146,"ECCENTRICITY":0.00019165,"INCLINATION":87.921,"RA_OF_ASC_NODE":341.5959,"ARG_OF_PERICENTER":85.0815,"MEAN_ANOMALY":275.0536,"EPHEMERIS_TYPE":0,"CLASSIFICATION_TYPE":"U","NORAD_CAT_ID":54127,"ELEMENT_SET_NO":999,"REV_AT_EPOCH":15251,"BSTAR":7.108938e-5,"MEAN_MOTION_DOT":4.1e-7,"MEAN_MOTION_DDOT":0},{"OBJECT_NAME":"ONEWEB-0510","OBJECT_ID":"2022-138R","EPOCH":"2025-12-15T08:17:32.313696","MEAN_MOTION":13.20769976,"ECCENTRICITY":0.00014682,"INCLINATION":87.9205,"RA_OF_ASC_NODE":311.0992,"ARG_OF_PERICENTER":95.2394,"MEAN_ANOMALY":264.8907,"EPHEMERIS_TYPE":0,"CLASSIFICATION_TYPE":"U","NORAD_CAT_ID":54128,"ELEMENT_SET_NO":999,"REV_AT_EPOCH":15501,"BSTAR":0.00016001877,"MEAN_MOTION_DOT":7.8e-7,"MEAN_MOTION_DDOT":0},{"OBJECT_NAME":"ONEWEB-0511","OBJECT_ID":"2022-138S","EPOCH":"2025-12-15T05:35:36.705408","MEAN_MOTION":13.1972496,"ECCENTRICITY":0.00020372,"INCLINATION":87.9213,"RA_OF_ASC_NODE":341.5548,"ARG_OF_PERICENTER":94.0331,"MEAN_ANOMALY":266.1034,"EPHEMERIS_TYPE":0,"CLASSIFICATION_TYPE":"U","NORAD_CAT_ID":54129,"ELEMENT_SET_NO":999,"REV_AT_EPOCH":15257,"BSTAR":0.00025585367,"MEAN_MOTION_DOT":1.15e-6,"MEAN_MOTION_DDOT":0},{"OBJECT_NAME":"ONEWEB-0512","OBJECT_ID":"2022-138T","EPOCH":"2025-12-15T05:24:13.828320","MEAN_MOTION":13.19725985,"ECCENTRICITY":0.00021648,"INCLINATION":87.9195,"RA_OF_ASC_NODE":341.5803,"ARG_OF_PERICENTER":84.8025,"MEAN_ANOMALY":275.3355,"EPHEMERIS_TYPE":0,"CLASSIFICATION_TYPE":"U","NORAD_CAT_ID":54130,"ELEMENT_SET_NO":999,"REV_AT_EPOCH":15254,"BSTAR":8.6636231e-5,"MEAN_MOTION_DOT":4.8e-7,"MEAN_MOTION_DDOT":0},{"OBJECT_NAME":"ONEWEB-0513","OBJECT_ID":"2022-138U","EPOCH":"2025-12-15T05:31:03.707328","MEAN_MOTION":13.20260186,"ECCENTRICITY":0.00027083,"INCLINATION":87.9211,"RA_OF_ASC_NODE":341.54,"ARG_OF_PERICENTER":88.2799,"MEAN_ANOMALY":271.8644,"EPHEMERIS_TYPE":0,"CLASSIFICATION_TYPE":"U","NORAD_CAT_ID":54131,"ELEMENT_SET_NO":999,"REV_AT_EPOCH":15244,"BSTAR":-7.729288e-6,"MEAN_MOTION_DOT":1.0e-7,"MEAN_MOTION_DDOT":0},{"OBJECT_NAME":"ONEWEB-0514","OBJECT_ID":"2022-138V","EPOCH":"2025-12-15T05:46:58.357344","MEAN_MOTION":13.19724976,"ECCENTRICITY":0.0001783,"INCLINATION":87.9204,"RA_OF_ASC_NODE":341.562,"ARG_OF_PERICENTER":91.6446,"MEAN_ANOMALY":268.4891,"EPHEMERIS_TYPE":0,"CLASSIFICATION_TYPE":"U","NORAD_CAT_ID":54132,"ELEMENT_SET_NO":999,"REV_AT_EPOCH":15256,"BSTAR":0.0003323363,"MEAN_MOTION_DOT":1.46e-6,"MEAN_MOTION_DDOT":0},{"OBJECT_NAME":"ONEWEB-0515","OBJECT_ID":"2022-138W","EPOCH":"2025-12-15T07:59:21.984576","MEAN_MOTION":13.20770707,"ECCENTRICITY":9.953e-5,"INCLINATION":87.921,"RA_OF_ASC_NODE":311.0886,"ARG_OF_PERICENTER":69.0883,"MEAN_ANOMALY":291.0357,"EPHEMERIS_TYPE":0,"CLASSIFICATION_TYPE":"U","NORAD_CAT_ID":54133,"ELEMENT_SET_NO":999,"REV_AT_EPOCH":15503,"BSTAR":0.00035658358,"MEAN_MOTION_DOT":1.58e-6,"MEAN_MOTION_DDOT":0},{"OBJECT_NAME":"ONEWEB-0516","OBJECT_ID":"2022-138X","EPOCH":"2025-12-15T05:10:34.990464","MEAN_MOTION":13.19726021,"ECCENTRICITY":0.00018183,"INCLINATION":87.9191,"RA_OF_ASC_NODE":341.5867,"ARG_OF_PERICENTER":83.3299,"MEAN_ANOMALY":276.804,"EPHEMERIS_TYPE":0,"CLASSIFICATION_TYPE":"U","NORAD_CAT_ID":54134,"ELEMENT_SET_NO":999,"REV_AT_EPOCH":15256,"BSTAR":0.00013733508,"MEAN_MOTION_DOT":6.8e-7,"MEAN_MOTION_DDOT":0}]
