ONEWEB-0500             
1 54118U 22138F   25349.35626289  .00000058  00000+0  11354-3 0  9998
2 54118  87.9203 341.5397 0001727  86.9687 273.1643 13.19724526152580
ONEWEB-0501             
1 54119U 22138G   25349.00719619  .00000008  00000+0 -13373-4 0  9991
2 54119  87.9210 341.6080 0002126  81.4542 278.6832 13.19724566152510
ONEWEB-0502             
1 54120U 22138H   25349.22042349  .00000052  00000+0  97411-4 0  9999
2 54120  87.9209 341.5470 0002091  85.8912 274.2460 13.19725807152565
ONEWEB-0503             
1 54121U 22138J   25349.28518009  .00000107  00000+0  23513-3 0  9999
2 54121  87.9210 341.5381 0001953  95.0881 265.0475 13.19725482152566
ONEWEB-0504             
1 54122U 22138K   25349.34835890  .00000018  00000+0  11381-4 0  9999
2 54122  87.9204 341.5415 0002079  87.0151 273.1219 13.19724329152586
ONEWEB-0505             
1 54123U 22138L   25349.34520277  .00000032  00000+0  47460-4 0  9993
2 54123  87.9210 341.5322 0002284  81.6398 278.4994 13.19724987152568
ONEWEB-0506             
1 54124U 22138M   25349.01666828  .00000061  00000+0  12026-3 0  9992
2 54124  87.9211 341.5948 0001994  85.5402 274.5959 13.19724626152513
ONEWEB-0507             
1 54125U 22138N   25349.03720119 -.00000024  00000+0 -91712-4 0  9990
2 54125  87.9192 341.6254 0001962  82.1694 277.9661 13.19724420152568
ONEWEB-0508             
1 54126U 22138P   25349.26149148  .00000096  00000+0  20844-3 0  9997
2 54126  87.9201 341.5746 0002030  78.5682 281.5679 13.19725511152571
ONEWEB-0509             
1 54127U 22138Q   25349.00876734  .00000041  00000+0  71089-4 0  9996
2 54127  87.9210 341.5959 0001916  85.0815 275.0536 13.19724146152518
ONEWEB-0510             
1 54128U 22138R   25349.34551289  .00000078  00000+0  16002-3 0  9992
2 54128  87.9205 311.0992 0001468  95.2394 264.8907 13.20769976155017
ONEWEB-0511             
1 54129U 22138S   25349.23306372  .00000115  00000+0  25585-3 0  9990
2 54129  87.9213 341.5548 0002037  94.0331 266.1034 13.19724960152579
ONEWEB-0512             
1 54130U 22138T   25349.22516005  .00000048  00000+0  86636-4 0  9997
2 54130  87.9195 341.5803 0002164  84.8025 275.3355 13.19725985152545
ONEWEB-0513             
1 54131U 22138U   25349.22990402  .00000010  00000+0 -77293-5 0  9995
2 54131  87.9211 341.5400 0002708  88.2799 271.8644 13.20260186152448
ONEWEB-0514             
1 54132U 22138V   25349.24095321  .00000146  00000+0  33234-3 0  9998
2 54132  87.9204 341.5620 0001783  91.6446 268.4891 13.19724976152563
ONEWEB-0515             
1 54133U 22138W   25349.33289334  .00000158  00000+0  35658-3 0  9993
2 54133  87.9210 311.0886 0000995  69.0883 291.0357 13.20770707155034
ONEWEB-0516             
1 54134U 22138X   25349.21568276  .00000068  00000+0  13734-3 0  9997
2 54134  87.9191 341.5867 0001818  83.3299 276.8040 13.19726021152568
